ONEWEB-0403             
1 50483U 21132Q   26003.46563668 -.00000038  00000+0 -12853-3 0  9998
2 50483  87.9176   8.1596 0001739  92.5368 267.5963 13.18686726199883
ONEWEB-0404             
1 50484U 21132R   26003.14899081 -.00000196  00000+0 -58781-3 0  9990
2 50484  87.8829  53.9316 0002001 107.9455 252.1891 13.11414683194066
ONEWEB-0405             
1 50485U 21132S   26003.48048249 -.00000011  00000+0 -60735-4 0  9999
2 50485  87.9173   8.1406 0001967  84.5101 275.6255 13.18686648200285
ONEWEB-0406             
1 50486U 21132T   26003.47057817 -.00000047  00000+0 -15079-3 0  9999
2 50486  87.9174   8.1681 0001701 105.4061 254.7260 13.18687087199915
ONEWEB-0407             
1 50487U 21132U   26003.46397884 -.00000085  00000+0 -24776-3 0  9996
2 50487  87.9176   8.1525 0001661  83.0468 277.0853 13.18686452199856
ONEWEB-0409             
1 50488U 21132V   26003.14729709 -.00000059  00000+0 -20221-3 0  9999
2 50488  87.8848  53.9045 0001780 111.9904 248.1413 13.11414645193957
ONEWEB-0412             
1 50489U 21132W   26003.45241927 -.00000211  00000+0 -56726-3 0  9994
2 50489  87.9177   8.1682 0001973  81.7785 278.3570 13.18685893199944
ONEWEB-0413             
1 50490U 21132X   26003.45739726  .00000049  00000+0  90426-4 0  9998
2 50490  87.9167   8.1778 0001832  78.9259 281.2079 13.18686539199887
